{
"type": "FeatureCollection",
"name": "zjg",
"crs": { "type": "name", "properties": { "name": "urn:ogc:def:crs:OGC:1.3:CRS84" } },
"features": [
{ "type": "Feature", "properties": { "id": 1, "name": "East" }, "geometry": { "type": "Polygon", "coordinates": [ [ [ 120.078489204521802, 30.296982725646174 ], [ 120.077373619202064, 30.299903422308621 ], [ 120.076706219262206, 30.305875085941338 ], [ 120.075548039340603, 30.312253595798232 ], [ 120.075735455713271, 30.312335248051244 ], [ 120.078061243382578, 30.312736811638828 ], [ 120.078283710029226, 30.312335248051244 ], [ 120.083218424736316, 30.313068536839683 ], [ 120.083359994420533, 30.311724169869546 ], [ 120.083157752014515, 30.310222647296932 ], [ 120.084249861007052, 30.311060709243883 ], [ 120.085665557849239, 30.31149719700305 ], [ 120.085948697217702, 30.310938492322947 ], [ 120.086717218360604, 30.310676598407749 ], [ 120.087384618300518, 30.308162381215197 ], [ 120.087445291022291, 30.302382929146457 ], [ 120.087647533428353, 30.297720705945807 ], [ 120.087243048616259, 30.297598472392867 ], [ 120.086211612345537, 30.297860401248325 ], [ 120.085200400315358, 30.297842939346403 ], [ 120.081135327954186, 30.29689999202451 ], [ 120.078489204521802, 30.296982725646174 ] ] ] } },
{ "type": "Feature", "properties": { "id": 2, "name": "West" }, "geometry": { "type": "Polygon", "coordinates": [ [ [ 120.075548039340603, 30.312253595798232 ], [ 120.076706219262206, 30.305875085941338 ], [ 120.077373619202064, 30.299903422308621 ], [ 120.078489204521802, 30.296982725646174 ], [ 120.073874825577789, 30.29712699868994 ], [ 120.071690607592686, 30.297528624579911 ], [ 120.069122129036117, 30.298017558225769 ], [ 120.068252486690199, 30.29855887477569 ], [ 120.066695220163766, 30.299047803284513 ], [ 120.065643559652443, 30.298803339334839 ], [ 120.065360420283994, 30.305403652037359 ], [ 120.065481765727597, 30.305630639014893 ], [ 120.064875038509513, 30.307603657525132 ], [ 120.075548039340603, 30.312253595798232 ] ] ] } }
]
}
